NORAD_CAT_ID,OBJECT_NAME,OBJECT_TYPE,EPOCH,MEAN_MOTION,ECCENTRICITY,INCLINATION,RA_OF_ASC_NODE,ARG_OF_PERICENTER,MEAN_ANOMALY,BSTAR,MEAN_MOTION_DOT,MEAN_MOTION_DDOT,TLE_LINE0,TLE_LINE1,TLE_LINE2,SEMIMAJOR_AXIS,PERIOD,APOGEE,PERIGEE,DECAYED
51725.0,STARLINK-3522,PAYLOAD,2023-11-21 12:31:38,15.08838694,0.0001366,53.2169,136.293,89.3054,270.8095,1.563e-05,-3.9e-07,0.0,0 STARLINK-3522,1 51725U 22016M   23325.52197911 -.00000039  00000-0  15630-4 0  9993,2 51725  53.2169 136.2930 0001366  89.3054 270.8095 15.08838694 96735,6917.884,95.438,540.694,538.804,0.0
51725.0,STARLINK-3522,PAYLOAD,2023-11-21 18:53:11,15.08839669,0.0001364,53.2168,135.1036,89.0927,271.0222,2.315e-05,8.1e-07,0.0,0 STARLINK-3522,1 51725U 22016M   23325.78693843  .00000081  00000-0  23150-4 0  9998,2 51725  53.2168 135.1036 0001364  89.0927 271.0222 15.08839669 96775,6917.881,95.438,540.69,538.803,0.0
51725.0,STARLINK-3522,PAYLOAD,2023-11-22 18:43:56,15.08869137,0.000145,53.217,130.6426,90.1967,269.9191,0.00029539,4.42e-05,0.0,0 STARLINK-3522,1 51725U 22016M   23326.78051270  .00004420  00000-0  29539-3 0  9998,2 51725  53.2170 130.6426 0001450  90.1967 269.9191 15.08869137 98051,6917.791,95.436,540.659,538.653,0.0
51725.0,STARLINK-3522,PAYLOAD,2023-11-23 10:37:49,15.08838284,0.0001508,53.2172,127.6693,94.5488,265.5677,5.2821e-05,5.53e-06,0.0,0 STARLINK-3522,1 51725U 22016M   23327.44293718  .00000553  00000-0  52821-4 0  9991,2 51725  53.2172 127.6693 0001508  94.5488 265.5677 15.08838284 98156,6917.886,95.438,540.794,538.707,0.0
51725.0,STARLINK-3522,PAYLOAD,2023-11-23 18:34:45,15.08834564,0.0001414,53.2176,126.1797,103.7414,256.3735,8.4859e-06,-1.53e-06,0.0,0 STARLINK-3522,1 51725U 22016M   23327.77414150 -.00000153  00000-0  84859-5 0  9996,2 51725  53.2176 126.1797 0001414 103.7414 256.3735 15.08834564 97077,6917.897,95.438,540.74,538.784,0.0
51725.0,STARLINK-3522,PAYLOAD,2023-11-24 10:28:37,15.08850702,0.0001616,53.2182,123.2065,119.8384,240.2769,-0.0002354,-4.034e-05,0.0,0 STARLINK-3522,1 51725U 22016M   23328.43654329 -.00004034  00000-0 -23540-3 0  9995,2 51725  53.2182 123.2065 0001616 119.8384 240.2769 15.08850702 97170,6917.848,95.437,540.831,538.595,0.0
51725.0,STARLINK-3522,PAYLOAD,2023-11-24 16:50:09,15.0885553,0.0001525,53.2178,122.0199,91.7914,268.3252,-0.00015347,-2.731e-05,0.0,0 STARLINK-3522,1 51725U 22016M   23328.70149737 -.00002731  00000-0 -15347-3 0  9995,2 51725  53.2178 122.0199 0001525  91.7914 268.3252 15.08855530 98348,6917.833,95.437,540.753,538.643,0.0
51725.0,STARLINK-3522,PAYLOAD,2023-11-25 13:30:09,15.08841447,0.0001514,53.2177,118.1539,101.4513,258.6649,0.00022144,3.238e-05,0.0,0 STARLINK-3522,1 51725U 22016M   23329.56261543  .00003238  00000-0  22144-3 0  9994,2 51725  53.2177 118.1539 0001514 101.4513 258.6649 15.08841447 97346,6917.876,95.437,540.788,538.694,0.0
51725.0,STARLINK-3522,PAYLOAD,2023-11-25 16:40:56,15.08847308,0.0001592,53.2178,117.5597,93.2565,266.8609,0.00028586,4.265e-05,0.0,0 STARLINK-3522,1 51725U 22016M   23329.69509289  .00004265  00000-0  28586-3 0  9997,2 51725  53.2178 117.5597 0001592  93.2565 266.8609 15.08847308 97366,6917.858,95.437,540.824,538.622,0.0
51725.0,STARLINK-3522,PAYLOAD,2023-11-26 13:20:56,15.08850225,0.0001836,53.2175,113.6911,112.2843,247.8344,0.00012245,1.662e-05,0.0,0 STARLINK-3522,1 51725U 22016M   23330.55621222  .00001662  00000-0  12245-3 0  9999,2 51725  53.2175 113.6911 0001836 112.2843 247.8344 15.08850225 97493,6917.849,95.437,540.984,538.444,0.0
51725.0,STARLINK-3522,PAYLOAD,2023-11-26 16:31:43,15.08849328,0.0001493,53.2173,113.0968,97.5892,262.527,0.00011224,1.499e-05,0.0,0 STARLINK-3522,1 51725U 22016M   23330.68869237  .00001499  00000-0  11224-3 0  9997,2 51725  53.2173 113.0968 0001493  97.5892 262.5270 15.08849328 98647,6917.852,95.437,540.75,538.684,0.0
51725.0,STARLINK-3522,PAYLOAD,2023-11-27 10:00:58,15.08835254,0.000158,53.2176,109.8288,105.4811,254.6355,-0.00020322,-3.52e-05,0.0,0 STARLINK-3522,1 51725U 22016M   23331.41733894 -.00003520  00000-0 -20322-3 0  9996,2 51725  53.2176 109.8288 0001580 105.4811 254.6355 15.08835254 98756,6917.895,95.438,540.853,538.667,0.0
51725.0,STARLINK-3522,PAYLOAD,2023-11-27 14:47:07,15.08834286,0.0001736,53.218,108.9349,117.5542,242.5627,-0.00019446,-3.381e-05,0.0,0 STARLINK-3522,1 51725U 22016M   23331.61605922 -.00003381  00000-0 -19446-3 0  9998,2 51725  53.2180 108.9349 0001736 117.5542 242.5627 15.08834286 97657,6917.898,95.438,540.964,538.562,0.0
51725.0,STARLINK-3522,PAYLOAD,2023-11-27 16:22:30,15.08834782,0.0001509,53.2172,108.635,108.0075,252.1082,-0.00018091,-3.166e-05,0.0,0 STARLINK-3522,1 51725U 22016M   23331.68229932 -.00003166  00000-0 -18091-3 0  9994,2 51725  53.2172 108.6350 0001509 108.0075 252.1082 15.08834782 97665,6917.896,95.438,540.805,538.717,0.0
51725.0,STARLINK-3522,PAYLOAD,2023-11-28 14:37:55,15.08837502,0.0001746,53.2178,104.4744,105.8132,254.3053,3.0081e-05,1.91e-06,0.0,0 STARLINK-3522,1 51725U 22016M   23332.60966439  .00000191  00000-0  30081-4 0  9994,2 51725  53.2178 104.4744 0001746 105.8132 254.3053 15.08837502 97805,6917.888,95.438,540.961,538.545,0.0
51725.0,STARLINK-3522,PAYLOAD,2023-11-29 14:28:41,15.08851685,0.0001718,53.2171,100.0134,66.4571,293.6601,-8.2276e-05,-1.598e-05,0.0,0 STARLINK-3522,1 51725U 22016M   23333.60326109 -.00001598  00000-0 -82276-4 0  9996,2 51725  53.2171 100.0134 0001718  66.4571 293.6601 15.08851685 97950,6917.845,95.437,540.898,538.521,0.0
51725.0,STARLINK-3522,PAYLOAD,2023-11-29 16:04:04,15.08850388,0.000143,53.2174,99.716,90.1154,270.0002,0.00035039,5.294e-05,0.0,0 STARLINK-3522,1 51725U 22016M   23333.66950197  .00005294  00000-0  35039-3 0  9991,2 51725  53.2174  99.7160 0001430  90.1154 270.0002 15.08850388 99098,6917.849,95.437,540.703,538.724,0.0
51725.0,STARLINK-3522,PAYLOAD,2023-11-30 15:54:52,15.08842538,0.0001555,53.218,95.2597,74.3782,285.7382,7.5022e-05,9.06e-06,0.0,0 STARLINK-3522,1 51725U 22016M   23334.66310732  .00000906  00000-0  75022-4 0  9999,2 51725  53.2180  95.2597 0001555  74.3782 285.7382 15.08842538 99248,6917.873,95.437,540.813,538.662,0.0
51725.0,STARLINK-3522,PAYLOAD,2023-12-01 14:10:15,15.08852571,0.0001499,53.2183,91.0934,84.6007,275.5156,0.00013092,1.797e-05,0.0,0 STARLINK-3522,1 51725U 22016M   23335.59046182  .00001797  00000-0  13092-3 0  9994,2 51725  53.2183  91.0934 0001499  84.6007 275.5156 15.08852571 98255,6917.842,95.437,540.744,538.67,0.0
51725.0,STARLINK-3522,PAYLOAD,2023-12-02 12:25:38,15.08864034,0.0001538,53.2192,86.9308,89.21,270.9069,0.00034716,5.245e-05,0.0,0 STARLINK-3522,1 51725U 22016M   23336.51781228  .00005245  00000-0  34716-3 0  9992,2 51725  53.2192  86.9308 0001538  89.2100 270.9069 15.08864034 99522,6917.807,95.436,540.736,538.608,0.0
51725.0,STARLINK-3522,PAYLOAD,2023-12-02 14:01:01,15.08867763,0.0001548,53.218,86.6383,90.6948,269.4221,0.00045314,6.936e-05,0.0,0 STARLINK-3522,1 51725U 22016M   23336.58404992  .00006936  00000-0  45314-3 0  9993,2 51725  53.2180  86.6383 0001548  90.6948 269.4221 15.08867763 98407,6917.796,95.436,540.731,538.59,0.0
51725.0,STARLINK-3522,PAYLOAD,2023-12-03 12:16:28,15.08819611,0.0001802,53.2186,82.47,128.1351,231.9804,-0.00032273,-5.418e-05,0.0,0 STARLINK-3522,1 51725U 22016M   23337.51143812 -.00005418  00000-0 -32273-3 0  9994,2 51725  53.2186  82.4700 0001802 128.1351 231.9804 15.08819611 99678,6917.943,95.439,541.054,538.561,0.0
51725.0,STARLINK-3522,PAYLOAD,2023-12-03 13:51:52,15.08805542,0.000151,53.2179,82.1729,104.5426,255.5734,-0.00049937,-8.219e-05,0.0,0 STARLINK-3522,1 51725U 22016M   23337.57768625 -.00008219  00000-0 -49937-3 0  9992,2 51725  53.2179  82.1729 0001510 104.5426 255.5734 15.08805542 98553,6917.986,95.44,540.895,538.806,0.0
51725.0,STARLINK-3522,PAYLOAD,2023-12-03 17:02:38,15.08806484,0.0001268,53.2179,81.5793,103.5534,256.5599,-0.00045057,-7.445e-05,0.0,0 STARLINK-3522,1 51725U 22016M   23337.71016867 -.00007445  00000-0 -45057-3 0  9991,2 51725  53.2179  81.5793 0001268 103.5534 256.5599 15.08806484 99700,6917.983,95.44,540.725,538.971,0.0
51725.0,STARLINK-3522,PAYLOAD,2023-12-04 12:07:15,15.08835409,0.0001847,53.2182,78.0073,115.5014,244.617,-3.3041e-05,-8.14e-06,0.0,0 STARLINK-3522,1 51725U 22016M   23338.50503737 -.00000814  00000-0 -33041-4 0  9990,2 51725  53.2182  78.0073 0001847 115.5014 244.6170 15.08835409 99820,6917.894,95.438,541.037,538.482,0.0
51725.0,STARLINK-3522,PAYLOAD,2023-12-04 16:53:24,15.08837329,0.0002221,53.2182,77.1118,125.1691,234.951,6.1741e-05,6.94e-06,0.0,0 STARLINK-3522,1 51725U 22016M   23338.70375733  .00000694  00000-0  61741-4 0  9997,2 51725  53.2182  77.1118 0002221 125.1691 234.9510 15.08837329 98726,6917.889,95.438,541.29,538.217,0.0
51725.0,STARLINK-3522,PAYLOAD,2023-12-05 11:58:02,15.08813611,0.0001513,53.2188,73.5498,108.6755,251.4401,0.00027545,4.095e-05,0.0,0 STARLINK-3522,1 51725U 22016M   23339.49864154  .00004095  00000-0  27545-3 0  9996,2 51725  53.2188  73.5498 0001513 108.6755 251.4401 15.08813611 98847,6917.961,95.439,540.873,538.779,0.0
51725.0,STARLINK-3522,PAYLOAD,2023-12-05 16:44:12,15.08816674,0.0001587,53.219,72.6572,112.3185,247.7975,0.0002778,4.133e-05,0.0,0 STARLINK-3522,1 51725U 22016M   23339.69736135  .00004133  00000-0  27780-3 0  9999,2 51725  53.2190  72.6572 0001587 112.3185 247.7975 15.08816674100001,6917.952,95.439,540.915,538.719,0.0
51725.0,STARLINK-3522,PAYLOAD,2023-12-06 11:48:47,15.08862916,0.0001856,53.2191,69.0889,126.606,233.5103,0.00011851,1.6e-05,0.0,0 STARLINK-3522,1 51725U 22016M   23340.49221898  .00001600  00000-0  11851-3 0  9992,2 51725  53.2191  69.0889 0001856 126.6060 233.5103 15.08862916100121,6917.81,95.436,540.959,538.391,0.0
51725.0,STARLINK-3522,PAYLOAD,2023-12-07 11:39:35,15.08821819,0.0002403,53.2189,64.6251,138.5449,221.5726,9.981e-05,1.3e-05,0.0,0 STARLINK-3522,1 51725U 22016M   23341.48583168  .00001300  00000-0  99810-4 0  9992,2 51725  53.2189  64.6251 0002403 138.5449 221.5726 15.08821819100275,6917.936,95.439,541.463,538.139,0.0
